[{"OBJECT_NAME":"OBJECT A","OBJECT_ID":"2022-023A","EPOCH":"2026-03-07T09:13:29.633664","MEAN_MOTION":15.18202647,"ECCENTRICITY":0.00985337,"INCLINATION":63.4765,"RA_OF_ASC_NODE":256.024,"ARG_OF_PERICENTER":341.4326,"MEAN_ANOMALY":18.3199,"EPHEMERIS_TYPE":0,"CLASSIFICATION_TYPE":"U","NORAD_CAT_ID":51946,"ELEMENT_SET_NO":999,"REV_AT_EPOCH":22226,"BSTAR":0.00019500419,"MEAN_MOTION_DOT":4.303e-5,"MEAN_MOTION_DDOT":0},{"OBJECT_NAME":"OPS 6432","OBJECT_ID":"1983-056A","EPOCH":"2026-03-09T09:42:49.398624","MEAN_MOTION":13.88372019,"ECCENTRICITY":0.06998718,"INCLINATION":63.303,"RA_OF_ASC_NODE":88.4155,"ARG_OF_PERICENTER":131.4024,"MEAN_ANOMALY":234.9391,"EPHEMERIS_TYPE":0,"CLASSIFICATION_TYPE":"U","NORAD_CAT_ID":14112,"ELEMENT_SET_NO":999,"REV_AT_EPOCH":9444,"BSTAR":0.00034445981,"MEAN_MOTION_DOT":3.135e-5,"MEAN_MOTION_DDOT":0}]
